KUIPER-00589            
1 69767U 26151E   26189.58336806  .00030345  00000+0  82424-3 0  9992
2 69767  51.8749 212.3544 0005501 121.0133  31.9976 15.37307983  1635
KUIPER-00598            
1 69768U 26151F   26189.58336806  .00031056  00000+0  88904-3 0  9992
2 69768  51.8633 212.4298 0010424 145.4236 331.0285 15.35621937  1542
KUIPER-00604            
1 69769U 26151G   26189.58336806  .00032388  00000+0  85609-3 0  9991
2 69769  51.8795 212.3088 0002785  86.1301  85.6334 15.38126267  1954
KUIPER-00609            
1 69770U 26151H   26189.58336806  .00032138  00000+0  83875-3 0  9999
2 69770  51.8798 212.2877 0001028  33.3085 148.3557 15.38523940  1308
KUIPER-00611            
1 69771U 26151J   26189.58336806  .00032427  00000+0  85129-3 0  9995
2 69771  51.8800 212.2942 0001672  83.3134  93.2900 15.38337521  1309
KUIPER-00612            
1 69772U 26151K   26189.58336806  .00031276  00000+0  83512-3 0  9991
2 69772  51.8787 212.3249 0003766  94.0339  71.0491 15.37828650  1303
KUIPER-00614            
1 69773U 26151L   26189.58336806  .00031324  00000+0  83070-3 0  9995
2 69773  51.8798 212.3110 0002767 101.1205  68.6994 15.38041668  1537
KUIPER-00615            
1 69774U 26151M   26189.58336806  .00031258  00000+0  85356-3 0  9991
2 69774  51.8769 212.3609 0006194 124.1138  24.6804 15.37124257  1309
KUIPER-00616            
1 69775U 26151N   26189.58336806  .00047339  00000+0  12387-2 0  9992
2 69775  51.8781 212.3129 0003165  99.6536  71.9831 15.38259548  1302
KUIPER-00617            
1 69776U 26151P   26189.58336806  .00029353  00000+0  78787-3 0  9996
2 69776  51.8792 212.3279 0003884 111.3030  51.5483 15.37700709  1306
KUIPER-00619            
1 69777U 26151Q   26189.58336806  .00048442  00000+0  12613-2 0  9992
2 69777  51.8800 212.2902 0001706  43.3138 136.1503 15.38402633  1302
KUIPER-00621            
1 69778U 26151R   26189.58336806  .00031714  00000+0  83608-3 0  9990
2 69778  51.8791 212.3064 0002021  92.4897  81.3588 15.38219327  1771
KUIPER-00622            
1 69779U 26151S   26189.58336806  .00030173  00000+0  83009-3 0  9994
2 69779  51.8728 212.3720 0006558 124.5973  20.2976 15.36908844  1637
KUIPER-00623            
1 69780U 26151T   26189.58336806  .00031280  00000+0  84872-3 0  9995
2 69780  51.8774 212.3442 0005119 112.3954  44.3000 15.37327353  1756
KUIPER-00626            
1 69781U 26151U   26189.58336806  .00041482  00000+0  11767-2 0  9993
2 69781  51.8711 212.4147 0009731 140.0905 343.9275 15.35775116  1999
KUIPER-00627            
1 69782U 26151V   26189.58336806  .00029400  00000+0  84438-3 0  9996
2 69782  51.8686 212.4264 0011032 143.8710 334.6292 15.35542377  1305
KUIPER-00629            
1 69783U 26151W   26189.58336806  .00031416  00000+0  86484-3 0  9990
2 69783  51.8739 212.3755 0007438 124.7895  18.0470 15.36862783  1326
KUIPER-00631            
1 69784U 26151X   26189.58336806  .00030324  00000+0  84130-3 0  9994
2 69784  51.8707 212.3874 0007996 132.2113   5.4027 15.36635160  1303
KUIPER-00634            
1 69785U 26151Y   26189.58336806  .00031184  00000+0  83820-3 0  9995
2 69785  51.8766 212.3363 0003775 113.0047  48.0937 15.37625272  1303
KUIPER-00639            
1 69786U 26151Z   26189.58336806  .00032438  00000+0  91451-3 0  9998
2 69786  51.8682 212.4059 0009407 134.9817 353.8063 15.36087842  1300
KUIPER-00641            
1 69787U 26151AA  26189.58336806  .00030463  00000+0  87565-3 0  9996
2 69787  51.8671 212.4226 0011416 147.2890 333.0643 15.35492944  1638
KUIPER-00644            
1 69788U 26151AB  26189.58336806  .00030341  00000+0  84657-3 0  9991
2 69788  51.8732 212.3950 0008670 134.8135 358.6177 15.36451965  1939
KUIPER-00646            
1 69789U 26151AC  26189.58336806  .00030190  00000+0  84854-3 0  9993
2 69789  51.8696 212.4036 0009796 136.0766 353.5934 15.36216688  1306
KUIPER-00647            
1 69790U 26151AD  26189.58336806  .00039739  00000+0  11311-2 0  9990
2 69790  51.8658 212.4236 0010247 142.0827 337.8127 15.35684082  1772
KUIPER-00662            
1 69791U 26151AE  26189.58336806  .00030414  00000+0  84598-3 0  9990
2 69791  51.8719 212.3912 0008646 129.8514   5.7275 15.36547690  1305
LINK                    
1 69792U 26152A   26187.20253665  .00199079  00000+0  18928-2 0  9996
2 69792  20.5939  36.4975 0023058 227.0468 132.8043 15.64575315   445
2026-152B               
1 69793U 26152B   26186.94772691  .00064375  00000+0  62935-3 0  9990
2 69793  20.5985  38.4619 0022150 223.3006 136.5698 15.64059707   408
STARLINK-37520          
1 69819U 26154A   26189.58336806 -.01282614  55352-3 -17925-2 0  9991
2 69819  53.1607 326.8108 0000855  55.5757 105.6869 16.05247903  1606
STARLINK-37553          
1 69820U 26154B   26189.58336806 -.01279013  55155-3 -17729-2 0  9995
2 69820  53.1606 326.8086 0000866  54.8289 107.4588 16.05381252  1600
STARLINK-37561          
1 69821U 26154C   26189.58336806 -.01276502  55046-3 -17546-2 0  9992
2 69821  53.1606 326.8065 0000840  56.1125 107.2050 16.05517486  1606
