OBJECT_NAME,OBJECT_ID,EPOCH,MEAN_MOTION,ECCENTRICITY,INCLINATION,RA_OF_ASC_NODE,ARG_OF_PERICENTER,MEAN_ANOMALY,EPHEMERIS_TYPE,CLASSIFICATION_TYPE,NORAD_CAT_ID,ELEMENT_SET_NO,REV_AT_EPOCH,BSTAR,MEAN_MOTION_DOT,MEAN_MOTION_DDOT
KUIPER-00589,2026-151E,2026-07-08T14:00:03.000384,15.37307983,.0005501,51.8749,212.3544,121.0133,31.9976,0,U,69767,999,163,.82424414E-3,.30345E-3,0
KUIPER-00598,2026-151F,2026-07-08T14:00:03.000384,15.35621937,.00104247,51.8633,212.4298,145.4236,331.0285,0,U,69768,999,154,.88904482E-3,.31056E-3,0
KUIPER-00604,2026-151G,2026-07-08T14:00:03.000384,15.38126267,.00027852,51.8795,212.3088,86.1301,85.6334,0,U,69769,999,195,.8560944E-3,.32388E-3,0
KUIPER-00609,2026-151H,2026-07-08T14:00:03.000384,15.38523940,.00010285,51.8798,212.2877,33.3085,148.3557,0,U,69770,999,130,.83874828E-3,.32138E-3,0
KUIPER-00611,2026-151J,2026-07-08T14:00:03.000384,15.38337521,.00016721,51.8800,212.2942,83.3134,93.2900,0,U,69771,999,130,.85128938E-3,.32427E-3,0
KUIPER-00612,2026-151K,2026-07-08T14:00:03.000384,15.37828650,.00037667,51.8787,212.3249,94.0339,71.0491,0,U,69772,999,130,.8351173E-3,.31276E-3,0
KUIPER-00614,2026-151L,2026-07-08T14:00:03.000384,15.38041668,.00027673,51.8798,212.3110,101.1205,68.6994,0,U,69773,999,153,.83069593E-3,.31324E-3,0
KUIPER-00615,2026-151M,2026-07-08T14:00:03.000384,15.37124257,.00061949,51.8769,212.3609,124.1138,24.6804,0,U,69774,999,130,.85355965E-3,.31258E-3,0
KUIPER-00616,2026-151N,2026-07-08T14:00:03.000384,15.38259548,.0003165,51.8781,212.3129,99.6536,71.9831,0,U,69775,999,130,.12386835E-2,.47339E-3,0
KUIPER-00617,2026-151P,2026-07-08T14:00:03.000384,15.37700709,.00038845,51.8792,212.3279,111.3030,51.5483,0,U,69776,999,130,.78786839E-3,.29353E-3,0
KUIPER-00619,2026-151Q,2026-07-08T14:00:03.000384,15.38402633,.0001706,51.8800,212.2902,43.3138,136.1503,0,U,69777,999,130,.12613258E-2,.48442E-3,0
KUIPER-00621,2026-151R,2026-07-08T14:00:03.000384,15.38219327,.00020217,51.8791,212.3064,92.4897,81.3588,0,U,69778,999,177,.83607965E-3,.31714E-3,0
KUIPER-00622,2026-151S,2026-07-08T14:00:03.000384,15.36908844,.00065585,51.8728,212.3720,124.5973,20.2976,0,U,69779,999,163,.83009446E-3,.30173E-3,0
KUIPER-00623,2026-151T,2026-07-08T14:00:03.000384,15.37327353,.00051197,51.8774,212.3442,112.3954,44.3000,0,U,69780,999,175,.84872131E-3,.3128E-3,0
KUIPER-00626,2026-151U,2026-07-08T14:00:03.000384,15.35775116,.00097315,51.8711,212.4147,140.0905,343.9275,0,U,69781,999,199,.11766837E-2,.41482E-3,0
KUIPER-00627,2026-151V,2026-07-08T14:00:03.000384,15.35542377,.00110323,51.8686,212.4264,143.8710,334.6292,0,U,69782,999,130,.84438023E-3,.294E-3,0
KUIPER-00629,2026-151W,2026-07-08T14:00:03.000384,15.36862783,.0007438,51.8739,212.3755,124.7895,18.0470,0,U,69783,999,132,.86483747E-3,.31416E-3,0
KUIPER-00631,2026-151X,2026-07-08T14:00:03.000384,15.36635160,.00079965,51.8707,212.3874,132.2113,5.4027,0,U,69784,999,130,.84129771E-3,.30324E-3,0
KUIPER-00634,2026-151Y,2026-07-08T14:00:03.000384,15.37625272,.00037758,51.8766,212.3363,113.0047,48.0937,0,U,69785,999,130,.83820336E-3,.31184E-3,0
KUIPER-00639,2026-151Z,2026-07-08T14:00:03.000384,15.36087842,.00094075,51.8682,212.4059,134.9817,353.8063,0,U,69786,999,130,.91451407E-3,.32438E-3,0
KUIPER-00641,2026-151AA,2026-07-08T14:00:03.000384,15.35492944,.00114165,51.8671,212.4226,147.2890,333.0643,0,U,69787,999,163,.87565432E-3,.30463E-3,0
KUIPER-00644,2026-151AB,2026-07-08T14:00:03.000384,15.36451965,.00086706,51.8732,212.3950,134.8135,358.6177,0,U,69788,999,193,.84656668E-3,.30341E-3,0
KUIPER-00646,2026-151AC,2026-07-08T14:00:03.000384,15.36216688,.00097962,51.8696,212.4036,136.0766,353.5934,0,U,69789,999,130,.84854075E-3,.3019E-3,0
KUIPER-00647,2026-151AD,2026-07-08T14:00:03.000384,15.35684082,.00102477,51.8658,212.4236,142.0827,337.8127,0,U,69790,999,177,.11310711E-2,.39739E-3,0
KUIPER-00662,2026-151AE,2026-07-08T14:00:03.000384,15.36547690,.00086467,51.8719,212.3912,129.8514,5.7275,0,U,69791,999,130,.84598474E-3,.30414E-3,0
LINK,2026-152A,2026-07-06T04:51:39.166560,15.64575315,.00230587,20.5939,36.4975,227.0468,132.8043,0,U,69792,999,44,.18927835E-2,.199079E-2,0
2026-152B,2026-152B,2026-07-05T22:44:43.605024,15.64059707,.002215,20.5985,38.4619,223.3006,136.5698,0,U,69793,999,40,.62935E-3,.64375E-3,0
STARLINK-37520,2026-154A,2026-07-08T14:00:03.000384,16.05247903,.00008557,53.1607,326.8108,55.5757,105.6869,0,U,69819,999,160,-.17925433E-2,-.1282614E-1,.55352464E-3
STARLINK-37553,2026-154B,2026-07-08T14:00:03.000384,16.05381252,.00008667,53.1606,326.8086,54.8289,107.4588,0,U,69820,999,160,-.17728627E-2,-.1279013E-1,.55155207E-3
STARLINK-37561,2026-154C,2026-07-08T14:00:03.000384,16.05517486,.00008405,53.1606,326.8065,56.1125,107.2050,0,U,69821,999,160,-.17545738E-2,-.1276502E-1,.55045712E-3
